{
  "type": "FeatureCollection",
  "features": [
    {
      "type": "Feature",
      "properties": {
        "norad_id": 34572,
        "name": "COSMOS 2251 DEB",
        "group": "cosmos-2251-debris",
        "lat": 9.049749039632696,
        "lon": -89.61772061443509,
        "alt_km": 682.768422829743,
        "timestamp": "2025-12-24T16:52:41.932136+00:00",
        "meta_object_name": "COSMOS 2251 DEB",
        "meta_object_id": "1993-036VJ",
        "meta_epoch": "2025-12-23T07:16:46.288992",
        "meta_mean_motion": 14.50207982,
        "meta_eccentricity": 0.00615459,
        "meta_inclination": 74.0109,
        "meta_ra_of_asc_node": 95.6327,
        "meta_arg_of_pericenter": 167.5469,
        "meta_mean_anomaly": 256.968,
        "meta_ephemeris_type": 0,
        "meta_classification_type": "U",
        "meta_norad_cat_id": 34572,
        "meta_element_set_no": 999,
        "meta_rev_at_epoch": 87531,
        "meta_bstar": 0.0025014732,
        "meta_mean_motion_dot": 9.956e-05,
        "meta_mean_motion_ddot": 0,
        "tle_line1": "1 34572U 93036VJ  25357.30331353  .00009956  00000+0  25015-2 0  9998",
        "tle_line2": "2 34572  74.0109  95.6327 0061545 167.5469 256.9680 14.50207982875313"
      },
      "geometry": {
        "type": "Point",
        "coordinates": [
          -89.61772061443509,
          9.049749039632696
        ]
      }
    },
    {
      "type": "Feature",
      "properties": {
        "norad_id": 34574,
        "name": "COSMOS 2251 DEB",
        "group": "cosmos-2251-debris",
        "lat": -39.469295476605446,
        "lon": -146.43878593491195,
        "alt_km": 712.1317559139789,
        "timestamp": "2025-12-24T16:52:41.932147+00:00",
        "meta_object_name": "COSMOS 2251 DEB",
        "meta_object_id": "1993-036VL",
        "meta_epoch": "2025-12-24T03:04:10.337952",
        "meta_mean_motion": 14.70721788,
        "meta_eccentricity": 0.00673109,
        "meta_inclination": 74.0678,
        "meta_ra_of_asc_node": 21.0709,
        "meta_arg_of_pericenter": 38.3361,
        "meta_mean_anomaly": 17.9408,
        "meta_ephemeris_type": 0,
        "meta_classification_type": "U",
        "meta_norad_cat_id": 34574,
        "meta_element_set_no": 999,
        "meta_rev_at_epoch": 88946,
        "meta_bstar": 0.00098262559,
        "meta_mean_motion_dot": 6.178e-05,
        "meta_mean_motion_ddot": 0,
        "tle_line1": "1 34574U 93036VL  25358.12789743  .00006178  00000+0  98263-3 0  9990",
        "tle_line2": "2 34574  74.0678  21.0709 0067310  38.3361  17.9408 14.70721788889466"
      },
      "geometry": {
        "type": "Point",
        "coordinates": [
          -146.43878593491195,
          -39.469295476605446
        ]
      }
    },
    {
      "type": "Feature",
      "properties": {
        "norad_id": 34576,
        "name": "COSMOS 2251 DEB",
        "group": "cosmos-2251-debris",
        "lat": -69.49080924961821,
        "lon": -14.532418574639312,
        "alt_km": 708.8104842506636,
        "timestamp": "2025-12-24T16:52:41.932157+00:00",
        "meta_object_name": "COSMOS 2251 DEB",
        "meta_object_id": "1993-036VN",
        "meta_epoch": "2025-12-23T18:57:14.793984",
        "meta_mean_motion": 14.55498804,
        "meta_eccentricity": 0.00082501,
        "meta_inclination": 74.0346,
        "meta_ra_of_asc_node": 117.2624,
        "meta_arg_of_pericenter": 255.3158,
        "meta_mean_anomaly": 256.967,
        "meta_ephemeris_type": 0,
        "meta_classification_type": "U",
        "meta_norad_cat_id": 34576,
        "meta_element_set_no": 999,
        "meta_rev_at_epoch": 88627,
        "meta_bstar": 0.00086024604,
        "meta_mean_motion_dot": 3.72e-05,
        "meta_mean_motion_ddot": 0,
        "tle_line1": "1 34576U 93036VN  25357.78975456  .00003720  00000+0  86025-3 0  9994",
        "tle_line2": "2 34576  74.0346 117.2624 0008250 255.3158 256.9670 14.55498804886272"
      },
      "geometry": {
        "type": "Point",
        "coordinates": [
          -14.532418574639312,
          -69.49080924961821
        ]
      }
    },
    {
      "type": "Feature",
      "properties": {
        "norad_id": 34579,
        "name": "COSMOS 2251 DEB",
        "group": "cosmos-2251-debris",
        "lat": 37.065508746606035,
        "lon": -145.90555401942217,
        "alt_km": 750.5862533083919,
        "timestamp": "2025-12-24T16:52:41.932167+00:00",
        "meta_object_name": "COSMOS 2251 DEB",
        "meta_object_id": "1993-036VR",
        "meta_epoch": "2025-12-24T00:47:29.603328",
        "meta_mean_motion": 14.45337222,
        "meta_eccentricity": 0.00274991,
        "meta_inclination": 74.0514,
        "meta_ra_of_asc_node": 202.8678,
        "meta_arg_of_pericenter": 269.8378,
        "meta_mean_anomaly": 242.6234,
        "meta_ephemeris_type": 0,
        "meta_classification_type": "U",
        "meta_norad_cat_id": 34579,
        "meta_element_set_no": 999,
        "meta_rev_at_epoch": 88337,
        "meta_bstar": 0.00034491318,
        "meta_mean_motion_dot": 1.191e-05,
        "meta_mean_motion_ddot": 0,
        "tle_line1": "1 34579U 93036VR  25358.03298152  .00001191  00000+0  34491-3 0  9997",
        "tle_line2": "2 34579  74.0514 202.8678 0027499 269.8378 242.6234 14.45337222883373"
      },
      "geometry": {
        "type": "Point",
        "coordinates": [
          -145.90555401942217,
          37.065508746606035
        ]
      }
    },
    {
      "type": "Feature",
      "properties": {
        "norad_id": 34582,
        "name": "COSMOS 2251 DEB",
        "group": "cosmos-2251-debris",
        "lat": -65.85441359606831,
        "lon": 109.86645029908512,
        "alt_km": 763.6269138779999,
        "timestamp": "2025-12-24T16:52:41.932178+00:00",
        "meta_object_name": "COSMOS 2251 DEB",
        "meta_object_id": "1993-036VU",
        "meta_epoch": "2025-12-24T02:24:22.214304",
        "meta_mean_motion": 14.43379697,
        "meta_eccentricity": 0.00484806,
        "meta_inclination": 74.0191,
        "meta_ra_of_asc_node": 251.2499,
        "meta_arg_of_pericenter": 358.9542,
        "meta_mean_anomaly": 1.1505,
        "meta_ephemeris_type": 0,
        "meta_classification_type": "U",
        "meta_norad_cat_id": 34582,
        "meta_element_set_no": 999,
        "meta_rev_at_epoch": 88111,
        "meta_bstar": 0.00070663444,
        "meta_mean_motion_dot": 2.392e-05,
        "meta_mean_motion_ddot": 0,
        "tle_line1": "1 34582U 93036VU  25358.10025711  .00002392  00000+0  70663-3 0  9993",
        "tle_line2": "2 34582  74.0191 251.2499 0048480 358.9542   1.1505 14.43379697881112"
      },
      "geometry": {
        "type": "Point",
        "coordinates": [
          109.86645029908512,
          -65.85441359606831
        ]
      }
    },
    {
      "type": "Feature",
      "properties": {
        "norad_id": 34588,
        "name": "COSMOS 2251 DEB",
        "group": "cosmos-2251-debris",
        "lat": -64.8070830624897,
        "lon": 103.55027580460617,
        "alt_km": 749.2328444633977,
        "timestamp": "2025-12-24T16:52:41.932188+00:00",
        "meta_object_name": "COSMOS 2251 DEB",
        "meta_object_id": "1993-036WA",
        "meta_epoch": "2025-12-24T03:05:49.284960",
        "meta_mean_motion": 14.42053204,
        "meta_eccentricity": 0.00193035,
        "meta_inclination": 74.0426,
        "meta_ra_of_asc_node": 247.1512,
        "meta_arg_of_pericenter": 298.7035,
        "meta_mean_anomaly": 211.8702,
        "meta_ephemeris_type": 0,
        "meta_classification_type": "U",
        "meta_norad_cat_id": 34588,
        "meta_element_set_no": 999,
        "meta_rev_at_epoch": 88114,
        "meta_bstar": 0.00038624449,
        "meta_mean_motion_dot": 1.245e-05,
        "meta_mean_motion_ddot": 0,
        "tle_line1": "1 34588U 93036WA  25358.12904265  .00001245  00000+0  38624-3 0  9998",
        "tle_line2": "2 34588  74.0426 247.1512 0019303 298.7035 211.8702 14.42053204881143"
      },
      "geometry": {
        "type": "Point",
        "coordinates": [
          103.55027580460617,
          -64.8070830624897
        ]
      }
    },
    {
      "type": "Feature",
      "properties": {
        "norad_id": 34589,
        "name": "COSMOS 2251 DEB",
        "group": "cosmos-2251-debris",
        "lat": -22.215817858225716,
        "lon": -137.59049912180117,
        "alt_km": 1072.2196169616918,
        "timestamp": "2025-12-24T16:52:41.932199+00:00",
        "meta_object_name": "COSMOS 2251 DEB",
        "meta_object_id": "1993-036WB",
        "meta_epoch": "2025-12-23T21:42:26.428320",
        "meta_mean_motion": 13.8606592,
        "meta_eccentricity": 0.0252393,
        "meta_inclination": 73.925,
        "meta_ra_of_asc_node": 37.0071,
        "meta_arg_of_pericenter": 338.1339,
        "meta_mean_anomaly": 202.7373,
        "meta_ephemeris_type": 0,
        "meta_classification_type": "U",
        "meta_norad_cat_id": 34589,
        "meta_element_set_no": 999,
        "meta_rev_at_epoch": 84866,
        "meta_bstar": 0.00043468,
        "meta_mean_motion_dot": 6.18e-06,
        "meta_mean_motion_ddot": 0,
        "tle_line1": "1 34589U 93036WB  25357.90447255  .00000618  00000+0  43468-3 0  9990",
        "tle_line2": "2 34589  73.9250  37.0071 0252393 338.1339 202.7373 13.86065920848665"
      },
      "geometry": {
        "type": "Point",
        "coordinates": [
          -137.59049912180117,
          -22.215817858225716
        ]
      }
    }
  ]
}